[{"OBJECT_NAME":"STARLINK-6172","OBJECT_ID":"2023-090AF","EPOCH":"2025-10-02T02:41:55.286880","MEAN_MOTION":15.02531912,"ECCENTRICITY":0.0001172,"INCLINATION":43.0032,"RA_OF_ASC_NODE":55.9317,"ARG_OF_PERICENTER":274.8661,"MEAN_ANOMALY":85.2047,"EPHEMERIS_TYPE":0,"CLASSIFICATION_TYPE":"U","NORAD_CAT_ID":57130,"ELEMENT_SET_NO":999,"REV_AT_EPOCH":12637,"BSTAR":2.9091e-6,"MEAN_MOTION_DOT":-1.64e-6,"MEAN_MOTION_DDOT":0},{"OBJECT_NAME":"STARLINK-6162","OBJECT_ID":"2023-090AG","EPOCH":"2025-10-02T01:05:08.291040","MEAN_MOTION":15.02546019,"ECCENTRICITY":0.0001336,"INCLINATION":43.0046,"RA_OF_ASC_NODE":44.1299,"ARG_OF_PERICENTER":270.2636,"MEAN_ANOMALY":89.8053,"EPHEMERIS_TYPE":0,"CLASSIFICATION_TYPE":"U","NORAD_CAT_ID":57131,"ELEMENT_SET_NO":999,"REV_AT_EPOCH":12650,"BSTAR":4.8962e-5,"MEAN_MOTION_DOT":4.58e-6,"MEAN_MOTION_DDOT":0},{"OBJECT_NAME":"STARLINK-6128","OBJECT_ID":"2023-090AH","EPOCH":"2025-10-02T02:32:19.724640","MEAN_MOTION":15.02528626,"ECCENTRICITY":0.000115,"INCLINATION":43.0044,"RA_OF_ASC_NODE":55.884,"ARG_OF_PERICENTER":275.2262,"MEAN_ANOMALY":84.8449,"EPHEMERIS_TYPE":0,"CLASSIFICATION_TYPE":"U","NORAD_CAT_ID":57132,"ELEMENT_SET_NO":999,"REV_AT_EPOCH":12637,"BSTAR":0.00011197,"MEAN_MOTION_DOT":1.309e-5,"MEAN_MOTION_DDOT":0},{"OBJECT_NAME":"STARLINK-6143","OBJECT_ID":"2023-090AJ","EPOCH":"2025-10-01T15:11:35.157120","MEAN_MOTION":15.02531988,"ECCENTRICITY":0.00011317,"INCLINATION":43.0036,"RA_OF_ASC_NODE":46.1942,"ARG_OF_PERICENTER":232.6484,"MEAN_ANOMALY":127.4255,"EPHEMERIS_TYPE":0,"CLASSIFICATION_TYPE":"U","NORAD_CAT_ID":57133,"ELEMENT_SET_NO":999,"REV_AT_EPOCH":12644,"BSTAR":0.00012946906,"MEAN_MOTION_DOT":1.546e-5,"MEAN_MOTION_DDOT":0},{"OBJECT_NAME":"STARLINK-6133","OBJECT_ID":"2023-090AK","EPOCH":"2025-10-02T01:06:44.762688","MEAN_MOTION":15.024931,"ECCENTRICITY":0.0001277,"INCLINATION":43.0067,"RA_OF_ASC_NODE":44.1383,"ARG_OF_PERICENTER":261.6137,"MEAN_ANOMALY":98.4561,"EPHEMERIS_TYPE":0,"CLASSIFICATION_TYPE":"U","NORAD_CAT_ID":57134,"ELEMENT_SET_NO":999,"REV_AT_EPOCH":12650,"BSTAR":0.00062482,"MEAN_MOTION_DOT":8.237e-5,"MEAN_MOTION_DDOT":0},{"OBJECT_NAME":"STARLINK-6127","OBJECT_ID":"2023-090AL","EPOCH":"2025-10-02T02:07:19.856064","MEAN_MOTION":15.02515656,"ECCENTRICITY":0.0001638,"INCLINATION":43.0075,"RA_OF_ASC_NODE":43.5924,"ARG_OF_PERICENTER":247.9734,"MEAN_ANOMALY":112.0934,"EPHEMERIS_TYPE":0,"CLASSIFICATION_TYPE":"U","NORAD_CAT_ID":57135,"ELEMENT_SET_NO":999,"REV_AT_EPOCH":12651,"BSTAR":-0.0001888,"MEAN_MOTION_DOT":-2.752e-5,"MEAN_MOTION_DDOT":0},{"OBJECT_NAME":"STARLINK-6112","OBJECT_ID":"2023-090AM","EPOCH":"2025-10-02T01:01:56.108064","MEAN_MOTION":15.02548,"ECCENTRICITY":0.0001017,"INCLINATION":43.003,"RA_OF_ASC_NODE":44.1119,"ARG_OF_PERICENTER":279.5272,"MEAN_ANOMALY":80.5455,"EPHEMERIS_TYPE":0,"CLASSIFICATION_TYPE":"U","NORAD_CAT_ID":57136,"ELEMENT_SET_NO":999,"REV_AT_EPOCH":12652,"BSTAR":-0.00031928,"MEAN_MOTION_DOT":-4.515e-5,"MEAN_MOTION_DDOT":0},{"OBJECT_NAME":"STARLINK-5347","OBJECT_ID":"2023-090AN","EPOCH":"2025-10-01T15:08:23.866656","MEAN_MOTION":15.02526762,"ECCENTRICITY":0.00012881,"INCLINATION":43.0032,"RA_OF_ASC_NODE":46.1756,"ARG_OF_PERICENTER":261.7798,"MEAN_ANOMALY":98.2898,"EPHEMERIS_TYPE":0,"CLASSIFICATION_TYPE":"U","NORAD_CAT_ID":57137,"ELEMENT_SET_NO":999,"REV_AT_EPOCH":12644,"BSTAR":-9.1593598e-5,"MEAN_MOTION_DOT":-1.44e-5,"MEAN_MOTION_DDOT":0},{"OBJECT_NAME":"STARLINK-5336","OBJECT_ID":"2023-090AP","EPOCH":"2025-10-01T15:25:58.038240","MEAN_MOTION":15.02527582,"ECCENTRICITY":5.637e-5,"INCLINATION":43.0025,"RA_OF_ASC_NODE":46.2691,"ARG_OF_PERICENTER":234.3549,"MEAN_ANOMALY":125.7241,"EPHEMERIS_TYPE":0,"CLASSIFICATION_TYPE":"U","NORAD_CAT_ID":57138,"ELEMENT_SET_NO":999,"REV_AT_EPOCH":12644,"BSTAR":0.00027383799,"MEAN_MOTION_DOT":3.497e-5,"MEAN_MOTION_DDOT":0},{"OBJECT_NAME":"STARLINK-5355","OBJECT_ID":"2023-090AQ","EPOCH":"2025-10-02T02:12:05.808960","MEAN_MOTION":15.02533559,"ECCENTRICITY":0.0001304,"INCLINATION":43.0005,"RA_OF_ASC_NODE":43.6127,"ARG_OF_PERICENTER":271.7261,"MEAN_ANOMALY":88.3432,"EPHEMERIS_TYPE":0,"CLASSIFICATION_TYPE":"U","NORAD_CAT_ID":57139,"ELEMENT_SET_NO":999,"REV_AT_EPOCH":12651,"BSTAR":-3.9289e-5,"MEAN_MOTION_DOT":-7.34e-6,"MEAN_MOTION_DDOT":0},{"OBJECT_NAME":"STARLINK-5357","OBJECT_ID":"2023-090AS","EPOCH":"2025-10-02T02:04:06.066048","MEAN_MOTION":15.02524273,"ECCENTRICITY":0.0001282,"INCLINATION":43.0026,"RA_OF_ASC_NODE":43.5747,"ARG_OF_PERICENTER":281.4617,"MEAN_ANOMALY":78.6082,"EPHEMERIS_TYPE":0,"CLASSIFICATION_TYPE":"U","NORAD_CAT_ID":57141,"ELEMENT_SET_NO":999,"REV_AT_EPOCH":12651,"BSTAR":5.5484e-5,"MEAN_MOTION_DOT":5.46e-6,"MEAN_MOTION_DDOT":0},{"OBJECT_NAME":"STARLINK-5361","OBJECT_ID":"2023-090AT","EPOCH":"2025-10-02T01:57:42.668640","MEAN_MOTION":15.02527824,"ECCENTRICITY":6.84e-5,"INCLINATION":43.003,"RA_OF_ASC_NODE":43.5374,"ARG_OF_PERICENTER":265.2822,"MEAN_ANOMALY":94.7942,"EPHEMERIS_TYPE":0,"CLASSIFICATION_TYPE":"U","NORAD_CAT_ID":57142,"ELEMENT_SET_NO":999,"REV_AT_EPOCH":12651,"BSTAR":8.1169e-5,"MEAN_MOTION_DOT":8.93e-6,"MEAN_MOTION_DDOT":0},{"OBJECT_NAME":"STARLINK-5358","OBJECT_ID":"2023-090AU","EPOCH":"2025-10-02T01:52:55.114752","MEAN_MOTION":15.02520726,"ECCENTRICITY":5.7e-5,"INCLINATION":43.0009,"RA_OF_ASC_NODE":43.516,"ARG_OF_PERICENTER":240.2815,"MEAN_ANOMALY":119.797,"EPHEMERIS_TYPE":0,"CLASSIFICATION_TYPE":"U","NORAD_CAT_ID":57143,"ELEMENT_SET_NO":999,"REV_AT_EPOCH":12651,"BSTAR":3.9167e-5,"MEAN_MOTION_DOT":3.26e-6,"MEAN_MOTION_DDOT":0},{"OBJECT_NAME":"STARLINK-5150","OBJECT_ID":"2023-090AV","EPOCH":"2025-10-02T02:08:53.742624","MEAN_MOTION":15.02537045,"ECCENTRICITY":0.0001662,"INCLINATION":43.0067,"RA_OF_ASC_NODE":43.5994,"ARG_OF_PERICENTER":267.0517,"MEAN_ANOMALY":93.0135,"EPHEMERIS_TYPE":0,"CLASSIFICATION_TYPE":"U","NORAD_CAT_ID":57144,"ELEMENT_SET_NO":999,"REV_AT_EPOCH":12651,"BSTAR":6.1299e-5,"MEAN_MOTION_DOT":6.24e-6,"MEAN_MOTION_DDOT":0},{"OBJECT_NAME":"STARLINK-5768","OBJECT_ID":"2023-090AW","EPOCH":"2025-10-02T01:40:08.008032","MEAN_MOTION":15.02530668,"ECCENTRICITY":0.0001313,"INCLINATION":43.0046,"RA_OF_ASC_NODE":43.4474,"ARG_OF_PERICENTER":267.5251,"MEAN_ANOMALY":92.5441,"EPHEMERIS_TYPE":0,"CLASSIFICATION_TYPE":"U","NORAD_CAT_ID":57145,"ELEMENT_SET_NO":999,"REV_AT_EPOCH":12651,"BSTAR":1.8456e-6,"MEAN_MOTION_DOT":-1.79e-6,"MEAN_MOTION_DDOT":0},{"OBJECT_NAME":"STARLINK-5791","OBJECT_ID":"2023-090AX","EPOCH":"2025-10-02T01:49:43.184928","MEAN_MOTION":15.02533473,"ECCENTRICITY":0.0001242,"INCLINATION":43.0053,"RA_OF_ASC_NODE":43.4969,"ARG_OF_PERICENTER":265.3844,"MEAN_ANOMALY":94.6857,"EPHEMERIS_TYPE":0,"CLASSIFICATION_TYPE":"U","NORAD_CAT_ID":57146,"ELEMENT_SET_NO":999,"REV_AT_EPOCH":12651,"BSTAR":-4.6954e-5,"MEAN_MOTION_DOT":-8.38e-6,"MEAN_MOTION_DDOT":0},{"OBJECT_NAME":"STARLINK-5765","OBJECT_ID":"2023-090AY","EPOCH":"2025-10-02T01:33:44.060256","MEAN_MOTION":15.02532041,"ECCENTRICITY":9.97e-5,"INCLINATION":43.0037,"RA_OF_ASC_NODE":43.4115,"ARG_OF_PERICENTER":263.9859,"MEAN_ANOMALY":96.087,"EPHEMERIS_TYPE":0,"CLASSIFICATION_TYPE":"U","NORAD_CAT_ID":57147,"ELEMENT_SET_NO":999,"REV_AT_EPOCH":12670,"BSTAR":-2.8289e-5,"MEAN_MOTION_DOT":-5.86e-6,"MEAN_MOTION_DDOT":0}]
