STARLINK-6172           
1 57130U 23090AF  25275.11244545 -.00000164  00000+0  29091-5 0  9994
2 57130  43.0032  55.9317 0001172 274.8661  85.2047 15.02531912126379
STARLINK-6162           
1 57131U 23090AG  25275.04523485  .00000458  00000+0  48962-4 0  9992
2 57131  43.0046  44.1299 0001336 270.2636  89.8053 15.02546019126504
STARLINK-6128           
1 57132U 23090AH  25275.10578385  .00001309  00000+0  11197-3 0  9994
2 57132  43.0044  55.8840 0001150 275.2262  84.8449 15.02528626126371
STARLINK-6143           
1 57133U 23090AJ  25274.63304580  .00001546  00000+0  12947-3 0  9993
2 57133  43.0036  46.1942 0001131 232.6484 127.4255 15.02531988126443
STARLINK-6133           
1 57134U 23090AK  25275.04635142  .00008237  00000+0  62482-3 0  9994
2 57134  43.0067  44.1383 0001277 261.6137  98.4561 15.02493100126500
STARLINK-6127           
1 57135U 23090AL  25275.08842426 -.00002752  00000+0 -18880-3 0  9995
2 57135  43.0075  43.5924 0001638 247.9734 112.0934 15.02515656126514
STARLINK-6112           
1 57136U 23090AM  25275.04301051 -.00004515  00000+0 -31928-3 0  9993
2 57136  43.0030  44.1119 0001017 279.5272  80.5455 15.02548000126525
STARLINK-5347           
1 57137U 23090AN  25274.63083179 -.00001440  00000+0 -91594-4 0  9996
2 57137  43.0032  46.1756 0001288 261.7798  98.2898 15.02526762126442
STARLINK-5336           
1 57138U 23090AP  25274.64303285  .00003497  00000+0  27384-3 0  9998
2 57138  43.0025  46.2691 0000563 234.3549 125.7241 15.02527582126448
STARLINK-5355           
1 57139U 23090AQ  25275.09173390 -.00000734  00000+0 -39289-4 0  9992
2 57139  43.0005  43.6127 0001304 271.7261  88.3432 15.02533559126517
STARLINK-5357           
1 57141U 23090AS  25275.08618132  .00000546  00000+0  55484-4 0  9996
2 57141  43.0026  43.5747 0001282 281.4617  78.6082 15.02524273126514
STARLINK-5361           
1 57142U 23090AT  25275.08174385  .00000893  00000+0  81169-4 0  9998
2 57142  43.0030  43.5374 0000684 265.2822  94.7942 15.02527824126518
STARLINK-5358           
1 57143U 23090AU  25275.07841568  .00000326  00000+0  39167-4 0  9994
2 57143  43.0009  43.5160 0000570 240.2815 119.7970 15.02520726126510
STARLINK-5150           
1 57144U 23090AV  25275.08951091  .00000624  00000+0  61299-4 0  9991
2 57144  43.0067  43.5994 0001662 267.0517  93.0135 15.02537045126518
STARLINK-5768           
1 57145U 23090AW  25275.06953713 -.00000179  00000+0  18456-5 0  9997
2 57145  43.0046  43.4474 0001313 267.5251  92.5441 15.02530668126519
STARLINK-5791           
1 57146U 23090AX  25275.07619427 -.00000838  00000+0 -46954-4 0  9996
2 57146  43.0053  43.4969 0001242 265.3844  94.6857 15.02533473126513
STARLINK-5765           
1 57147U 23090AY  25275.06509329 -.00000586  00000+0 -28289-4 0  9996
2 57147  43.0037  43.4115 0000997 263.9859  96.0870 15.02532041126707
